{"fetched_at":"2026-07-23T17:55:03.132Z","source":"https://celestrak.org/NORAD/elements/gp.php?GROUP=globalstar&FORMAT=JSON","constellation":"globalstar","records":[{"OBJECT_NAME":"GLOBALSTAR M069","OBJECT_ID":"2007-020C","EPOCH":"2026-07-23T05:43:32.520576","CLASSIFICATION_TYPE":"U","MEAN_MOTION":12.23472604,"ECCENTRICITY":0.00014711,"INCLINATION":52.002,"RA_OF_ASC_NODE":150.0854,"ARG_OF_PERICENTER":228.3389,"MEAN_ANOMALY":277.911,"EPHEMERIS_TYPE":0,"NORAD_CAT_ID":31573,"ELEMENT_SET_NO":999,"REV_AT_EPOCH":88321,"BSTAR":0.00028083581,"MEAN_MOTION_DOT":-6.2e-7,"MEAN_MOTION_DDOT":0},{"OBJECT_NAME":"GLOBALSTAR M072","OBJECT_ID":"2007-020D","EPOCH":"2026-07-23T05:29:13.879104","CLASSIFICATION_TYPE":"U","MEAN_MOTION":11.91658762,"ECCENTRICITY":0.00016368,"INCLINATION":51.9954,"RA_OF_ASC_NODE":4.2932,"ARG_OF_PERICENTER":49.964,"MEAN_ANOMALY":121.0387,"EPHEMERIS_TYPE":0,"NORAD_CAT_ID":31574,"ELEMENT_SET_NO":999,"REV_AT_EPOCH":87927,"BSTAR":0.000003543041,"MEAN_MOTION_DOT":-8.4e-7,"MEAN_MOTION_DDOT":0},{"OBJECT_NAME":"GLOBALSTAR M066","OBJECT_ID":"2007-048C","EPOCH":"2026-07-22T07:50:47.963328","CLASSIFICATION_TYPE":"U","MEAN_MOTION":12.30390412,"ECCENTRICITY":0.00054808,"INCLINATION":51.961,"RA_OF_ASC_NODE":317.038,"ARG_OF_PERICENTER":116.3209,"MEAN_ANOMALY":278.95,"EPHEMERIS_TYPE":0,"NORAD_CAT_ID":32265,"ELEMENT_SET_NO":999,"REV_AT_EPOCH":86455,"BSTAR":0.00059144625,"MEAN_MOTION_DOT":-2.5e-7,"MEAN_MOTION_DDOT":0},{"OBJECT_NAME":"GLOBALSTAR M079","OBJECT_ID":"2010-054A","EPOCH":"2026-07-22T18:20:41.440128","CLASSIFICATION_TYPE":"U","MEAN_MOTION":12.62266424,"ECCENTRICITY":0.00011132,"INCLINATION":52.0059,"RA_OF_ASC_NODE":0.3677,"ARG_OF_PERICENTER":89.9803,"MEAN_ANOMALY":309.6942,"EPHEMERIS_TYPE":0,"NORAD_CAT_ID":37188,"ELEMENT_SET_NO":999,"REV_AT_EPOCH":72704,"BSTAR":0.000026196411,"MEAN_MOTION_DOT":-9.9e-7,"MEAN_MOTION_DDOT":0},{"OBJECT_NAME":"GLOBALSTAR M074","OBJECT_ID":"2010-054B","EPOCH":"2026-07-22T16:59:37.558176","CLASSIFICATION_TYPE":"U","MEAN_MOTION":12.62262042,"ECCENTRICITY":0.00008332,"INCLINATION":52.0038,"RA_OF_ASC_NODE":359.7991,"ARG_OF_PERICENTER":104.9572,"MEAN_ANOMALY":278.6412,"EPHEMERIS_TYPE":0,"NORAD_CAT_ID":37189,"ELEMENT_SET_NO":999,"REV_AT_EPOCH":72764,"BSTAR":0.00000616184,"MEAN_MOTION_DOT":-0.00000103,"MEAN_MOTION_DDOT":0},{"OBJECT_NAME":"GLOBALSTAR M076","OBJECT_ID":"2010-054C","EPOCH":"2026-07-22T20:16:02.094816","CLASSIFICATION_TYPE":"U","MEAN_MOTION":12.62262687,"ECCENTRICITY":0.00010806,"INCLINATION":52.0053,"RA_OF_ASC_NODE":359.5904,"ARG_OF_PERICENTER":102.3636,"MEAN_ANOMALY":61.2519,"EPHEMERIS_TYPE":0,"NORAD_CAT_ID":37190,"ELEMENT_SET_NO":999,"REV_AT_EPOCH":72737,"BSTAR":0.00012609369,"MEAN_MOTION_DOT":-8.1e-7,"MEAN_MOTION_DDOT":0},{"OBJECT_NAME":"GLOBALSTAR M077","OBJECT_ID":"2010-054D","EPOCH":"2026-07-23T02:31:24.438144","CLASSIFICATION_TYPE":"U","MEAN_MOTION":11.67547147,"ECCENTRICITY":0.00021482,"INCLINATION":51.9963,"RA_OF_ASC_NODE":88.1305,"ARG_OF_PERICENTER":239.9139,"MEAN_ANOMALY":289.0346,"EPHEMERIS_TYPE":0,"NORAD_CAT_ID":37191,"ELEMENT_SET_NO":999,"REV_AT_EPOCH":72533,"BSTAR":-0.00019577933,"MEAN_MOTION_DOT":-8.9e-7,"MEAN_MOTION_DDOT":0},{"OBJECT_NAME":"GLOBALSTAR M075","OBJECT_ID":"2010-054E","EPOCH":"2026-07-23T06:07:44.458752","CLASSIFICATION_TYPE":"U","MEAN_MOTION":12.6226791,"ECCENTRICITY":0.00007981,"INCLINATION":51.9957,"RA_OF_ASC_NODE":40.3727,"ARG_OF_PERICENTER":76.1708,"MEAN_ANOMALY":96.2621,"EPHEMERIS_TYPE":0,"NORAD_CAT_ID":37192,"ELEMENT_SET_NO":999,"REV_AT_EPOCH":72649,"BSTAR":-0.000002683359,"MEAN_MOTION_DOT":-0.00000104,"MEAN_MOTION_DDOT":0},{"OBJECT_NAME":"GLOBALSTAR M073","OBJECT_ID":"2010-054F","EPOCH":"2026-07-23T07:16:22.572192","CLASSIFICATION_TYPE":"U","MEAN_MOTION":12.62266988,"ECCENTRICITY":0.00009599,"INCLINATION":52.0079,"RA_OF_ASC_NODE":314.3577,"ARG_OF_PERICENTER":109.0082,"MEAN_ANOMALY":278.3995,"EPHEMERIS_TYPE":0,"NORAD_CAT_ID":37193,"ELEMENT_SET_NO":999,"REV_AT_EPOCH":72849,"BSTAR":0.000026151128,"MEAN_MOTION_DOT":-9.9e-7,"MEAN_MOTION_DDOT":0},{"OBJECT_NAME":"GLOBALSTAR M083","OBJECT_ID":"2011-033A","EPOCH":"2026-07-23T03:46:42.237984","CLASSIFICATION_TYPE":"U","MEAN_MOTION":12.62258606,"ECCENTRICITY":0.000069,"INCLINATION":51.9852,"RA_OF_ASC_NODE":262.9816,"ARG_OF_PERICENTER":113.6176,"MEAN_ANOMALY":272.9985,"EPHEMERIS_TYPE":0,"NORAD_CAT_ID":37739,"ELEMENT_SET_NO":999,"REV_AT_EPOCH":69749,"BSTAR":0.000073343859,"MEAN_MOTION_DOT":-9.1e-7,"MEAN_MOTION_DDOT":0},{"OBJECT_NAME":"GLOBALSTAR M088","OBJECT_ID":"2011-033B","EPOCH":"2026-07-23T07:40:42.714048","CLASSIFICATION_TYPE":"U","MEAN_MOTION":12.62269562,"ECCENTRICITY":0.00001983,"INCLINATION":52.0195,"RA_OF_ASC_NODE":168.9984,"ARG_OF_PERICENTER":33.4122,"MEAN_ANOMALY":130.86,"EPHEMERIS_TYPE":0,"NORAD_CAT_ID":37740,"ELEMENT_SET_NO":999,"REV_AT_EPOCH":69305,"BSTAR":0.000086537532,"MEAN_MOTION_DOT":-8.8e-7,"MEAN_MOTION_DDOT":0},{"OBJECT_NAME":"GLOBALSTAR M091","OBJECT_ID":"2011-033C","EPOCH":"2026-07-23T04:03:29.859840","CLASSIFICATION_TYPE":"U","MEAN_MOTION":12.62264327,"ECCENTRICITY":0.00006081,"INCLINATION":51.9992,"RA_OF_ASC_NODE":132.3705,"ARG_OF_PERICENTER":37.5082,"MEAN_ANOMALY":101.4618,"EPHEMERIS_TYPE":0,"NORAD_CAT_ID":37741,"ELEMENT_SET_NO":999,"REV_AT_EPOCH":69382,"BSTAR":0.000015488907,"MEAN_MOTION_DOT":-0.00000101,"MEAN_MOTION_DDOT":0},{"OBJECT_NAME":"GLOBALSTAR M085","OBJECT_ID":"2011-033D","EPOCH":"2026-07-23T03:54:44.948736","CLASSIFICATION_TYPE":"U","MEAN_MOTION":12.6226455,"ECCENTRICITY":0.00009204,"INCLINATION":52.0129,"RA_OF_ASC_NODE":83.7129,"ARG_OF_PERICENTER":55.3823,"MEAN_ANOMALY":115.9644,"EPHEMERIS_TYPE":0,"NORAD_CAT_ID":37742,"ELEMENT_SET_NO":999,"REV_AT_EPOCH":69433,"BSTAR":0.000007106489,"MEAN_MOTION_DOT":-0.00000103,"MEAN_MOTION_DDOT":0},{"OBJECT_NAME":"GLOBALSTAR M081","OBJECT_ID":"2011-033E","EPOCH":"2026-07-23T02:36:35.053056","CLASSIFICATION_TYPE":"U","MEAN_MOTION":12.6226545,"ECCENTRICITY":0.00007876,"INCLINATION":51.9961,"RA_OF_ASC_NODE":86.273,"ARG_OF_PERICENTER":65.9975,"MEAN_ANOMALY":98.4661,"EPHEMERIS_TYPE":0,"NORAD_CAT_ID":37743,"ELEMENT_SET_NO":999,"REV_AT_EPOCH":69447,"BSTAR":0.000015744358,"MEAN_MOTION_DOT":-0.00000101,"MEAN_MOTION_DDOT":0},{"OBJECT_NAME":"GLOBALSTAR M089","OBJECT_ID":"2011-033F","EPOCH":"2026-07-23T01:42:23.177376","CLASSIFICATION_TYPE":"U","MEAN_MOTION":12.62267686,"ECCENTRICITY":0.00007251,"INCLINATION":51.9941,"RA_OF_ASC_NODE":40.5389,"ARG_OF_PERICENTER":99.3141,"MEAN_ANOMALY":75.2064,"EPHEMERIS_TYPE":0,"NORAD_CAT_ID":37744,"ELEMENT_SET_NO":999,"REV_AT_EPOCH":69531,"BSTAR":0.000029139683,"MEAN_MOTION_DOT":-9.9e-7,"MEAN_MOTION_DDOT":0},{"OBJECT_NAME":"GLOBALSTAR M084","OBJECT_ID":"2011-080A","EPOCH":"2026-07-23T04:56:47.984352","CLASSIFICATION_TYPE":"U","MEAN_MOTION":12.62263744,"ECCENTRICITY":0.00006527,"INCLINATION":52.0003,"RA_OF_ASC_NODE":267.6306,"ARG_OF_PERICENTER":144.7634,"MEAN_ANOMALY":223.2491,"EPHEMERIS_TYPE":0,"NORAD_CAT_ID":38040,"ELEMENT_SET_NO":999,"REV_AT_EPOCH":67331,"BSTAR":0.00007240236,"MEAN_MOTION_DOT":-9.1e-7,"MEAN_MOTION_DDOT":0}]}
